#dP2022  7 24  0  0  0.00000000      96 __u+U ITR00 EXT  IAC
## 2220      0.00000000   900.00000000 59784 0.0000000000000
+  116   C06C07C08C09C10C11C12C13C14C16C19C20C21C22C23C24C25
+        C26C27C28C29C30C32C33C34C35C36C37C38C39C40C41C42C43
+        C44C45C46E01E02E03E04E05E07E08E09E10E11E12E13E14E15
+        E18E19E21E24E25E26E27E30E31E33E34E36G01G02G03G04G05
+        G06G07G08G09G10G11G12G13G14G15G16G17G18G19G20G21G22
+        G23G24G25G26G27G28G29G30G31G32J02J03R01R02R03R04R05
+        R07R08R09R11R12R13R14R15R17R18R19R20R21R24  0  0  0
++        10  9 10  8  7  7  8 10 10 10  7  9 10  8  9  8 10
++         9  9  8  9  8  8  9  9  8  8  8 10  8 10  7  9  7
++         8  9  9  8  7  8  7  8  8  7  7  8  7  8  7  7  8
++         7  7  8  7  7  8  8  7  8  7  8  8  7  7  7  7  8
++         7  8  7  7  6  7  9  7  7  8  7  7  7  8  8  7  8
++         6  7  7  8  8  7  7  7  8  8 10  9  8  8  8 10  7
++         6  8  8  8  9  8  9  7  7  9  8 10  8  7  0  0  0
%c M  cc GPS ccc cccc cccc cccc cccc ccccc ccccc ccccc ccccc
%c cc cc ccc ccc cccc cccc cccc cccc ccccc ccccc ccccc ccccc
%f  0.0000000  0.000000000  0.00000000000  0.000000000000000
%f  0.0000000  0.000000000  0.00000000000  0.000000000000000
%i    0    0    0    0      0      0      0      0         0
%i    0    0    0    0      0      0      0      0         0
/* IAC                                ULTRA-RAPID PREDICTION
/* S/V CLOCKS ARE ALIGNED TO GNSS TIME                      
/* G:C1WC2W R:C1PC2P E:C1XC5X C:C2IC6I J:C1CC2S             
/* PCV:IGS14_2215 OL/AL:FES2004  NONE     YN ORB:CoN CLK:CoN
*  2022 07 24  4  0  0.00000000
PC06 -14114.756897  24305.460436 -31468.812151    458.979526
PC07 -11781.944173  40367.981294   1017.182839   -470.152159
PC08   2464.966454  30318.765525  29257.416544    415.880550
PC09  -5939.932234  24385.212788 -33563.150496   -918.145102
PC10  -6375.415897  40830.180127   7093.416273    115.682300
PC11  26001.274043  -8264.274557  -5899.563050    492.929469
PC12  25281.813892   3146.230310  11443.413658   -569.566344
PC13   6526.380827  33087.225771  25600.566632     32.714618
PC14  16950.127200 -15002.484672 -16344.135968    555.475871
PC16 -17097.445131  23377.381500 -30526.428883    143.352097
PC19 -13845.227396  22660.696730   8558.931238   -275.696647
PC20 -17323.825551   6679.900539  20832.567414   -964.118681
PC21  10598.768357  14410.402232 -21398.441475    -43.849321
PC22  -2210.020025  26216.520566  -9259.910840   -963.094668
PC23  -6461.722179 -23110.879001  14257.128350   -950.214490
PC24  21281.716929   5687.517242  17142.594438   -967.668648
PC25   9481.194046 -13548.278275  22473.896073   -703.165608
PC26  20271.221220  18953.837486   3088.839681    705.228080
PC27 -19532.262051  -8968.716458 -17827.198327    758.956665
PC28   -652.176554 -15984.082420 -22866.853038     93.544790
PC29 -19100.199894  14459.559417  14300.070092    585.823898
PC30 -27463.186446   3879.617677  -3171.369872    501.420935
PC32 -10678.727149 -14436.493127  21377.191706    -66.079600
PC33  13749.738198 -22722.082287  -8600.266559   -238.890422
PC34  27439.458266  -4570.630297   2092.776885   -352.006450
PC35   -206.457549  16245.162549  22678.958769    379.889253
PC36 -10222.643531  12875.491566 -22518.345651   -971.594152
PC37 -19294.301771 -20054.659457  -1909.830454   -920.859938
PC38  -5406.581381  26864.018563  32095.409187     12.260353
PC39 -22310.561921  23363.775537 -27162.099472     -0.103658
PC40 -18314.191662  37796.644311  -1872.957731     -1.074682
PC41   2434.234914 -26376.782154   8837.528565   -105.930194
PC42  17250.532787  -5546.356564 -21188.718437   -952.557774
PC43  19704.944341 -14218.991583 -13719.031129      4.668005
PC44  19680.328428   8473.768492  17848.842055    733.909708
PC45   6843.267212  23134.236237 -14032.354209    816.844577
PC46 -20723.162703  -4127.855731 -18201.623960   -448.355176
PE01   3307.837209  29223.969024  -3338.293377   -521.056977
PE02  -3418.293667 -29224.499752   3180.281216    313.889940
PE03   3756.656378 -21762.310188  19717.288692   -582.155291
PE04  14525.292311   9660.751596 -23905.685429  -1078.068014
PE05  20198.124091 -21299.859236   3839.807031   -160.122468
PE07 -24647.894399   8451.534990  14039.559422   -690.254004
PE08 -14584.324344  -9386.303398  23988.029943   -568.945204
PE09  24576.219634  -8606.240051 -14086.847756   -598.255116
PE10  28146.166557   9177.784846   -189.206185   -502.620373
PE11  27645.568418   2176.997302 -10356.855160   2899.618700
PE12  24069.058051  14466.345026   9329.209335    -78.093741
PE13 -27846.697502  -2689.623586   9667.865864    429.947483
PE14  25439.214494  -6297.430104   9764.203523  -1770.172307
PE15 -24010.379544 -14460.116305  -9520.686500    731.353372
PE18 -21283.581535  -5613.762202 -18975.608450  -1178.244037
PE19  -6312.807243  22397.772586 -18284.970239  -5007.299441
PE21  -8838.922552  21179.272646 -18688.449851   -747.687732
PE24  17029.027663    872.182481  24190.187055   -741.724751
PE25   9018.258047 -20946.628262  18881.566896   -582.121224
PE26 -14484.869602  11194.753811  23253.786599  -1412.553989
PE27 -16814.242178    489.959111 -24347.407999   -351.882607
PE30 -14441.609894 -21084.635739 -14930.886641   -697.071807
PE31  14834.142406  20289.215903  15646.508153   -500.440200
PE33   6035.788597  17637.756620  22986.951667   -454.433528
PE34  -6259.748724 -17655.664003 -22928.340869   -487.382824
PE36  15305.537405 -10568.588923 -23030.961018   -406.562474
PG01 -21866.199161 -14478.313310  -5553.305239    315.480612
PG02   5709.914867  16981.420250  20210.371690   -650.802222
PG03 -12223.556533 -17690.425637  15544.153605   -315.108890
PG04 -14411.122363  -7945.997122  20873.562527   -142.179204
PG05   6206.003309  25474.257977  -3909.946162    -90.266192
PG06 -11673.743983  10288.259014  21597.573158    397.472110
PG07 -24735.675327  -4513.393083  -8875.752297    318.081399
PG08  -7339.911002 -13391.638570 -21748.797675    -77.485102
PG09 -21638.864533   2677.610430  15124.120373   -315.894495
PG10  11888.552145 -13448.771257 -19325.332552   -502.845239
PG11   1526.877335  16878.969359  20451.701874    -10.388466
PG12   9815.647446  20450.238913  13637.706210   -251.193021
PG13  -3404.848793  17266.794490 -19994.127071    354.359400
PG14 -13386.135933  11721.508486 -19683.473041   -111.354718
PG15   9261.055728  13227.412183 -21492.479963    -42.985349
PG16    605.200029 -26272.012285    998.391529   -517.027141
PG17 -22766.135652  13702.108955   -505.370351    640.402909
PG18  24341.132483   4242.635001  -9922.703598    103.996954
PG19 -19017.227273  16568.599037   7676.154575    187.776255
PG20   -184.772186  25147.330035   8898.709984    500.675957
PG21 -16909.368435 -15830.526512 -12980.653283    160.965364
PG22  16295.467926 -18214.844507  10596.791116    297.582360
PG23  14901.495468  -1926.572733 -21913.532094    -34.227484
PG24  20163.979025  14938.432633  -9618.292321    188.761321
PG25  15137.540814   7481.122421  20278.496137    352.724212
PG26   4982.214919 -23244.890056  11432.068479    219.922981
PG27   5970.974479 -18988.969476 -17601.235074    220.925698
PG28  -9490.905154  20409.840804 -13773.204643    336.887581
PG29  21758.345644  -1203.166751  15189.325232   -536.384518
PG30 -19874.879440   4457.349091 -17085.563398   -534.633534
PG31   9875.425006 -12058.680763  21412.115676   -186.941238
PG32  20895.833630 -16183.987596   1300.490953   -184.432465
PJ02 -20510.997171  26105.959255 -21376.817140     -2.090149
PJ03 -28515.335113  25837.356796  22191.274277     -0.245758
PR01 -15428.738042  13726.904490  14964.130708     11.973792
PR02 -11062.047140  22727.601957  -3624.514000    525.017011
PR03    172.693305  17540.752779 -18499.345978     60.725914
PR04  10850.826967   2557.151267 -22914.749214    151.667351
PR05  15729.595386 -13671.854248 -14681.345689     96.728949
PR07   -780.770364 -16959.168036  19057.108722     38.303800
PR08 -11073.097610  -2427.644548  22908.614519    -66.368389
PR09   -784.981958 -18117.373498  17998.066692     67.414897
PR11 -16273.634573 -14606.732686 -13133.324454     32.459237
PR12 -11033.014934   2821.291474 -22792.492129     19.470117
PR13   -163.972885  17083.104242 -18948.986431    -24.933990
PR14  11907.849788  22358.380784  -2883.168264     24.778137
PR15  16163.746890  13994.553446  13932.385063     94.537830
PR17   9784.137139   9699.235951  21479.441976    546.176255
PR18  23034.800003   4505.821599   9940.887364     34.129299
PR19  24797.020542  -1827.239810  -5724.696133   -197.425695
PR20  10643.373171  -9125.651671 -21299.376862    -75.182293
PR21 -11233.605152  -9393.904469 -20883.469642   -319.865018
PR24  -9705.795350   9975.287666  21381.011076    105.162327
EOF
